NORAD_CAT_ID,OBJECT_NAME,OBJECT_TYPE,EPOCH,MEAN_MOTION,ECCENTRICITY,INCLINATION,RA_OF_ASC_NODE,ARG_OF_PERICENTER,MEAN_ANOMALY,BSTAR,MEAN_MOTION_DOT,MEAN_MOTION_DDOT,TLE_LINE0,TLE_LINE1,TLE_LINE2,SEMIMAJOR_AXIS,PERIOD,APOGEE,PERIGEE,DECAYED
53909.0,STARLINK-4796,PAYLOAD,2022-11-27 22:00:00,15.66621298,0.0001071,53.2166,296.5540000000001,80.5752,323.4782,-0.011953,-0.01154333,0.0,0 STARLINK-4796,1 53909U 22119Z   22331.91667824 -.01154333  00000-0 -11953-1 0  9997,2 53909  53.2166 296.5540 0001071  80.5752 323.4782 15.66621298 10509,6746.717,91.918,369.305,367.859,0.0
53909.0,STARLINK-4796,PAYLOAD,2022-11-28 22:00:01,15.64184701,0.0001135,53.2167,291.6623,93.2989,189.4087,-0.013251,-0.01159455,0.0,0 STARLINK-4796,1 53909U 22119Z   22332.91668981 -.01159455  00000-0 -13251-1 0  9996,2 53909  53.2167 291.6623 0001135  93.2989 189.4087 15.64184701 10657,6753.722,92.061,376.353,374.82,0.0
53909.0,STARLINK-4796,PAYLOAD,2022-11-29 14:00:01,15.62538327,0.000109,53.2172,288.4113,84.9478,351.9412,-0.013815,-0.01134988,0.0,0 STARLINK-4796,1 53909U 22119Z   22333.58335648 -.01134988  00000-0 -13815-1 0  9991,2 53909  53.2172 288.4113 0001090  84.9478 351.9412 15.62538327  1306,6758.465,92.158,381.066,379.593,0.0
53909.0,STARLINK-4796,PAYLOAD,2022-11-29 22:00:00,15.61736185,0.0001218,53.2164,286.7887,87.8528,64.5836,-0.014452,-0.01149115,0.0,0 STARLINK-4796,1 53909U 22119Z   22333.91667824 -.01149115  00000-0 -14452-1 0  9998,2 53909  53.2164 286.7887 0001218  87.8528  64.5836 15.61736185 10810,6760.779,92.205,383.467,381.82,0.0
53909.0,STARLINK-4796,PAYLOAD,2022-11-30 14:00:01,15.60098871,0.0001076,53.2175,283.5489,91.6064,209.2054,-0.015225,-0.01137205,0.0,0 STARLINK-4796,1 53909U 22119Z   22334.58335648 -.01137205  00000-0 -15225-1 0  9994,2 53909  53.2175 283.5489 0001076  91.6064 209.2054 15.60098871  1301,6765.5080000000025,92.302,388.101,386.645,0.0
53909.0,STARLINK-4796,PAYLOAD,2022-11-30 22:00:00,15.59283619,0.000103,53.2177,281.932,88.1256,285.307,-0.015656,-0.01133672,0.0,0 STARLINK-4796,1 53909U 22119Z   22334.91667824 -.01133672  00000-0 -15656-1 0  9997,2 53909  53.2177 281.9320 0001030  88.1256 285.3070 15.59283619 10973,6767.866,92.35,390.42800000000005,389.034,0.0
53909.0,STARLINK-4796,PAYLOAD,2022-12-01 14:00:01,15.57655862,0.0001214,53.2175,278.7047,96.8962,58.9738,-0.016645,-0.01133004,0.0,0 STARLINK-4796,1 53909U 22119Z   22335.58334491 -.01133004  00000-0 -16645-1 0  9990,2 53909  53.2175 278.7047 0001214  96.8962  58.9738 15.57655862  1308,6772.58,92.447,395.268,393.62300000000016,0.0
53909.0,STARLINK-4796,PAYLOAD,2022-12-01 20:00:01,15.57044671,0.0001199,53.2175,277.4957,98.1929,20.1478,-0.016999,-0.01130935,0.0,0 STARLINK-4796,1 53909U 22119Z   22335.83335648 -.01130935  00000-0 -16999-1 0  9995,2 53909  53.2175 277.4957 0001199  98.1929  20.1478 15.57044671 11116,6774.353,92.483,397.03,395.405,0.0
53909.0,STARLINK-4796,PAYLOAD,2022-12-01 22:00:00,15.56849378,0.000122,53.2165,277.0944,85.3278,140.2897,-0.017304,-0.01141668,0.0,0 STARLINK-4796,1 53909U 22119Z   22335.91667824 -.01141668  00000-0 -17304-1 0  9994,2 53909  53.2165 277.0944 0001220  85.3278 140.2897 15.56849378  1302,6774.919,92.494,397.611,395.957,0.0
53909.0,STARLINK-4796,PAYLOAD,2022-12-02 14:00:01,15.55146817,0.0001046,53.2166,273.8791,58.1105,304.1133,-0.016648,-0.01040445,0.0,0 STARLINK-4796,1 53909U 22119Z   22336.58334491 -.01040445  00000-0 -16648-1 0  9990,2 53909  53.2166 273.8791 0001046  58.1105 304.1133 15.55146817 11234,6779.863,92.596,402.437,401.019,0.0
53909.0,STARLINK-4796,PAYLOAD,2022-12-02 22:00:00,15.54426542,0.0001112,53.2163,272.2737,74.9761,354.0204,-0.019373,-0.01165285,0.0,0 STARLINK-4796,1 53909U 22119Z   22336.91667824 -.01165285  00000-0 -19373-1 0  9994,2 53909  53.2163 272.2737 0001112  74.9761 354.0204 15.54426542 11285,6781.956999999999,92.639,404.576,403.068,0.0
53909.0,STARLINK-4796,PAYLOAD,2022-12-03 14:00:01,15.52778021,0.0001246,53.217,269.0698,87.1559,112.5547,-0.020039,-0.01137664,0.0,0 STARLINK-4796,1 53909U 22119Z   22337.58334491 -.01137664  00000-0 -20039-1 0  9990,2 53909  53.2170 269.0698 0001246  87.1559 112.5547 15.52778021  1301,6786.755999999999,92.737,409.467,407.776,0.0
53909.0,STARLINK-4796,PAYLOAD,2022-12-03 22:00:00,15.51979105,0.0001198,53.2167,267.4708,79.7404,183.8471,-0.021006,-0.01156388,0.0,0 STARLINK-4796,1 53909U 22119Z   22337.91667824 -.01156388  00000-0 -21006-1 0  9995,2 53909  53.2167 267.4708 0001198  79.7404 183.8471 15.51979105  1305,6789.085,92.785,411.764,410.137,0.0
53909.0,STARLINK-4796,PAYLOAD,2022-12-04 06:00:00,15.51136237,0.0001042,53.2167,265.8757,82.9893,243.5142,-0.020644,-0.01107474,0.0,0 STARLINK-4796,1 53909U 22119Z   22338.25001157 -.01107474  00000-0 -20644-1 0  9993,2 53909  53.2167 265.8757 0001042  82.9893 243.5142 15.51136237 11487,6791.544,92.835,414.117,412.702,0.0
53909.0,STARLINK-4796,PAYLOAD,2022-12-04 12:00:00,15.50403159,0.0001083,53.2174,264.6769,82.7466,200.3131,-0.011302,-0.00605622,0.0,0 STARLINK-4796,1 53909U 22119Z   22338.50001157 -.00605622  00000-0 -11302-1 0  9999,2 53909  53.2174 264.6769 0001083  82.7466 200.3131 15.50403159 11527,6793.685,92.879,416.286,414.814,0.0
53909.0,STARLINK-4796,PAYLOAD,2022-12-04 14:00:01,15.50237425,0.0001079,53.2169,264.2786,67.2921,321.146,-0.008587,-0.00465693,0.0,0 STARLINK-4796,1 53909U 22119Z   22338.58334491 -.00465693  00000-0 -85870-2 0  9991,2 53909  53.2169 264.2786 0001079  67.2921 321.1460 15.50237425  1308,6794.169,92.889,416.767,415.301,0.0
53909.0,STARLINK-4796,PAYLOAD,2022-12-04 22:00:00,15.49818426,0.0001146,53.2124,262.6891,84.9101,4.5024,0.0017158,0.00097925,0.0,0 STARLINK-4796,1 53909U 22119Z   22338.91667824  .00097925  00000-0  17158-2 0  9998,2 53909  53.2124 262.6891 0001146  84.9101   4.5024 15.49818426 11593,6795.394,92.914,418.038,416.48,0.0
53909.0,STARLINK-4796,PAYLOAD,2022-12-05 14:00:01,15.49963072,0.0001229,53.2149,259.5002,87.7836,123.5164,-0.0019007,-0.00107158,0.0,0 STARLINK-4796,1 53909U 22119Z   22339.58335648 -.00107158  00000-0 -19007-2 0  9995,2 53909  53.2149 259.5002 0001229  87.7836 123.5164 15.49963072 11693,6794.971,92.905,417.671,416.001,0.0
53909.0,STARLINK-4796,PAYLOAD,2022-12-05 22:00:01,15.50016182,0.0001188,53.2167,257.906,83.2329,189.0367,-0.023161,-0.01203253,0.0,0 STARLINK-4796,1 53909U 22119Z   22339.91668981 -.01203253  00000-0 -23161-1 0  9990,2 53909  53.2167 257.9060 0001188  83.2329 189.0367 15.50016182 11742,6794.816,92.902,417.48800000000006,415.874,0.0
53909.0,STARLINK-4796,PAYLOAD,2022-12-06 14:00:01,15.48332328,9.27e-05,53.2172,254.7231,100.1186,292.2416,-0.022871,-0.01110062,0.0,0 STARLINK-4796,1 53909U 22119Z   22340.58335648 -.01110062  00000-0 -22871-1 0  9998,2 53909  53.2172 254.7231 0000927 100.1186 292.2416 15.48332328 11857,6799.741,93.003,422.237,420.976,0.0
53909.0,STARLINK-4796,PAYLOAD,2022-12-06 22:00:00,15.47567354,0.0001186,53.217,253.1351,107.2287,343.6072,-0.025046,-0.01194188,0.0,0 STARLINK-4796,1 53909U 22119Z   22340.91667824 -.01194188  00000-0 -25046-1 0  9997,2 53909  53.2170 253.1351 0001186 107.2287 343.6072 15.47567354  1305,6801.982,93.049,424.654,423.04,0.0
53909.0,STARLINK-4796,PAYLOAD,2022-12-07 06:00:00,15.46583127,0.0001341,53.2169,251.55,103.9631,44.542,-0.020408,-0.00946346,0.0,0 STARLINK-4796,1 53909U 22119Z   22341.25001157 -.00946346  00000-0 -20408-1 0  9993,2 53909  53.2169 251.5500 0001341 103.9631  44.5420 15.46583127 11951,6804.8669999999975,93.108,427.645,425.82,0.0
53909.0,STARLINK-4796,PAYLOAD,2022-12-07 14:00:01,15.45613159,0.0001377,53.2173,249.9634,99.4989,105.6968,-0.016089,-0.0072758,0.0,0 STARLINK-4796,1 53909U 22119Z   22341.58334491 -.00727580  00000-0 -16089-1 0  9996,2 53909  53.2173 249.9634 0001377  99.4989 105.6968 15.45613159 12000,6807.714,93.167,430.516,428.642,0.0
53909.0,STARLINK-4796,PAYLOAD,2022-12-07 22:00:00,15.44700581,0.0001473,53.2172,248.3813,121.6614,139.2178,-0.013404,-0.00589648,0.0,0 STARLINK-4796,1 53909U 22119Z   22341.91667824 -.00589648  00000-0 -13404-1 0  9991,2 53909  53.2172 248.3813 0001473 121.6614 139.2178 15.44700581 12057,6810.395,93.222,433.263,431.257,0.0
53909.0,STARLINK-4796,PAYLOAD,2022-12-08 00:00:00,15.44824336,0.0001252999999999,53.2175,247.9863,123.4981,240.9634,-0.024037,-0.01039653,0.0,0 STARLINK-4796,1 53909U 22119Z   22342.00001157 -.01039653  00000-0 -24037-1 0  9994,2 53909  53.2175 247.9863 0001253 123.4981 240.9634 15.44824336  1301,6810.031,93.214,432.75,431.043,0.0
53909.0,STARLINK-4796,PAYLOAD,2022-12-08 06:00:00,15.44275014,0.0001301,53.2173,246.8016,125.6182,189.7139,-0.026721,-0.01141689,0.0,0 STARLINK-4796,1 53909U 22119Z   22342.25001157 -.01141689  00000-0 -26721-1 0  9996,2 53909  53.2173 246.8016 0001301 125.6182 189.7139 15.44275014 12101,6811.646,93.248,434.397,432.625,0.0
53909.0,STARLINK-4796,PAYLOAD,2022-12-08 14:00:01,15.43474957,0.0001131,53.2171,245.222,90.7589,278.2426,-0.027986,-0.01161627,0.0,0 STARLINK-4796,1 53909U 22119Z   22342.58334491 -.01161627  00000-0 -27986-1 0  9990,2 53909  53.2171 245.2220 0001131  90.7589 278.2426 15.43474957  1302,6814.0,93.296,436.635,435.094,0.0
53909.0,STARLINK-4796,PAYLOAD,2022-12-08 22:00:01,15.42647767,0.0001128,53.2177,243.6455,81.7065,340.0626,-0.028277,-0.01142959,0.0,0 STARLINK-4796,1 53909U 22119Z   22342.91668981 -.01142959  00000-0 -28277-1 0  9992,2 53909  53.2177 243.6455 0001128  81.7065 340.0626 15.42647767 12217,6816.435,93.346,439.069,437.532,0.0
53909.0,STARLINK-4796,PAYLOAD,2022-12-09 14:00:01,15.41019235,0.0001284999999999,53.2173,240.4967,98.196,65.9706,-0.029809,-0.01140901,0.0,0 STARLINK-4796,1 53909U 22119Z   22343.58334491 -.01140901  00000-0 -29809-1 0  9999,2 53909  53.2173 240.4967 0001285  98.1960  65.9706 15.41019235  1308,6821.236999999999,93.445,443.978,442.225,0.0
